[
  {
    "OBJECT_NAME": "STARLINK-3950",
    "OBJECT_ID": "22086Y",
    "EPOCH": "2025-11-11T07:14:36.732192",
    "MEAN_MOTION": 15.08842821,
    "ECCENTRICITY": 0.0001357,
    "INCLINATION": 53.2184,
    "RA_OF_ASC_NODE": 5.5818,
    "ARG_OF_PERICENTER": 89.1056,
    "MEAN_ANOMALY": 271.0091,
    "EPHEMERIS_TYPE": 0,
    "CLASSIFICATION_TYPE": "U",
    "NORAD_CAT_ID": 53264,
    "ELEMENT_SET_NO": 999,
    "REV_AT_EPOCH": 18319,
    "BSTAR": 0.00014321,
    "MEAN_MOTION_DOT": 1.992e-05,
    "MEAN_MOTION_DDOT": 0.0,
    "TLE_LINE1": "1 53264U 22086Y   25315.30181403  .00001992  00000+0  14321-3 0  9998",
    "TLE_LINE2": "2 53264  53.2184   5.5818 0001357  89.1056 271.0091 15.08842821183198",
    "COMMENT": "Grouped by shell and plane from TLE"
  },
  {
    "OBJECT_NAME": "STARLINK-4097",
    "OBJECT_ID": "22086Z",
    "EPOCH": "2025-11-11T03:42:39.117024",
    "MEAN_MOTION": 15.08847801,
    "ECCENTRICITY": 0.0001221,
    "INCLINATION": 53.2176,
    "RA_OF_ASC_NODE": 6.243,
    "ARG_OF_PERICENTER": 58.1028,
    "MEAN_ANOMALY": 302.0083,
    "EPHEMERIS_TYPE": 0,
    "CLASSIFICATION_TYPE": "U",
    "NORAD_CAT_ID": 53265,
    "ELEMENT_SET_NO": 999,
    "REV_AT_EPOCH": 18317,
    "BSTAR": 2.7583000000000003e-05,
    "MEAN_MOTION_DOT": 1.51e-06,
    "MEAN_MOTION_DDOT": 0.0,
    "TLE_LINE1": "1 53265U 22086Z   25315.15461941  .00000151  00000+0  27583-4 0  9991",
    "TLE_LINE2": "2 53265  53.2176   6.2430 0001221  58.1028 302.0083 15.08847801183170",
    "COMMENT": "Grouped by shell and plane from TLE"
  },
  {
    "OBJECT_NAME": "STARLINK-4058",
    "OBJECT_ID": "22086AA",
    "EPOCH": "2025-11-11T06:58:42.911616",
    "MEAN_MOTION": 15.08841685,
    "ECCENTRICITY": 0.0001455,
    "INCLINATION": 53.2182,
    "RA_OF_ASC_NODE": 5.6335,
    "ARG_OF_PERICENTER": 89.9797,
    "MEAN_ANOMALY": 270.1362,
    "EPHEMERIS_TYPE": 0,
    "CLASSIFICATION_TYPE": "U",
    "NORAD_CAT_ID": 53266,
    "ELEMENT_SET_NO": 999,
    "REV_AT_EPOCH": 18319,
    "BSTAR": 1.5247e-05,
    "MEAN_MOTION_DOT": -4.5e-07,
    "MEAN_MOTION_DDOT": 0.0,
    "TLE_LINE1": "1 53266U 22086AA  25315.29077444 -.00000045  00000+0  15247-4 0  9995",
    "TLE_LINE2": "2 53266  53.2182   5.6335 0001455  89.9797 270.1362 15.08841685183190",
    "COMMENT": "Grouped by shell and plane from TLE"
  },
  {
    "OBJECT_NAME": "STARLINK-4060",
    "OBJECT_ID": "22086AB",
    "EPOCH": "2025-11-11T03:32:02.754240",
    "MEAN_MOTION": 15.08841918,
    "ECCENTRICITY": 0.0001527,
    "INCLINATION": 53.2181,
    "RA_OF_ASC_NODE": 6.2781,
    "ARG_OF_PERICENTER": 90.4703,
    "MEAN_ANOMALY": 269.6464,
    "EPHEMERIS_TYPE": 0,
    "CLASSIFICATION_TYPE": "U",
    "NORAD_CAT_ID": 53267,
    "ELEMENT_SET_NO": 999,
    "REV_AT_EPOCH": 18317,
    "BSTAR": 0.00013154,
    "MEAN_MOTION_DOT": 1.806e-05,
    "MEAN_MOTION_DDOT": 0.0,
    "TLE_LINE1": "1 53267U 22086AB  25315.14725410  .00001806  00000+0  13154-3 0  9992",
    "TLE_LINE2": "2 53267  53.2181   6.2781 0001527  90.4703 269.6464 15.08841918183179",
    "COMMENT": "Grouped by shell and plane from TLE"
  },
  {
    "OBJECT_NAME": "STARLINK-4109",
    "OBJECT_ID": "22086AC",
    "EPOCH": "2025-11-11T06:48:07.080192",
    "MEAN_MOTION": 15.08850041,
    "ECCENTRICITY": 0.0001338,
    "INCLINATION": 53.2179,
    "RA_OF_ASC_NODE": 5.6633,
    "ARG_OF_PERICENTER": 98.8965,
    "MEAN_ANOMALY": 261.2179,
    "EPHEMERIS_TYPE": 0,
    "CLASSIFICATION_TYPE": "U",
    "NORAD_CAT_ID": 53268,
    "ELEMENT_SET_NO": 999,
    "REV_AT_EPOCH": 18319,
    "BSTAR": 9.6075e-05,
    "MEAN_MOTION_DOT": 1.242e-05,
    "MEAN_MOTION_DDOT": 0.0,
    "TLE_LINE1": "1 53268U 22086AC  25315.28341528  .00001242  00000+0  96075-4 0  9990",
    "TLE_LINE2": "2 53268  53.2179   5.6633 0001338  98.8965 261.2179 15.08850041183198",
    "COMMENT": "Grouped by shell and plane from TLE"
  },
  {
    "OBJECT_NAME": "STARLINK-4786",
    "OBJECT_ID": "23014C",
    "EPOCH": "2025-11-11T07:02:55.639392",
    "MEAN_MOTION": 14.98333301,
    "ECCENTRICITY": 0.0003001,
    "INCLINATION": 70.0004,
    "RA_OF_ASC_NODE": 2.8757,
    "ARG_OF_PERICENTER": 267.92,
    "MEAN_ANOMALY": 92.1615,
    "EPHEMERIS_TYPE": 0,
    "CLASSIFICATION_TYPE": "U",
    "NORAD_CAT_ID": 55393,
    "ELEMENT_SET_NO": 999,
    "REV_AT_EPOCH": 15432,
    "BSTAR": 7.093500000000001e-05,
    "MEAN_MOTION_DOT": 7.54e-06,
    "MEAN_MOTION_DDOT": 0.0,
    "TLE_LINE1": "1 55393U 23014C   25315.29369953  .00000754  00000+0  70935-4 0  9990",
    "TLE_LINE2": "2 55393  70.0004   2.8757 0003001 267.9200  92.1615 14.98333301154321",
    "COMMENT": "Grouped by shell and plane from TLE"
  },
  {
    "OBJECT_NAME": "STARLINK-5274",
    "OBJECT_ID": "23014E",
    "EPOCH": "2025-11-11T06:50:54.500064",
    "MEAN_MOTION": 14.98331435,
    "ECCENTRICITY": 0.0003546,
    "INCLINATION": 70.0003,
    "RA_OF_ASC_NODE": 2.8253,
    "ARG_OF_PERICENTER": 269.85,
    "MEAN_ANOMALY": 90.2252,
    "EPHEMERIS_TYPE": 0,
    "CLASSIFICATION_TYPE": "U",
    "NORAD_CAT_ID": 55395,
    "ELEMENT_SET_NO": 999,
    "REV_AT_EPOCH": 15432,
    "BSTAR": 7.6652e-05,
    "MEAN_MOTION_DOT": 8.22e-06,
    "MEAN_MOTION_DDOT": 0.0,
    "TLE_LINE1": "1 55395U 23014E   25315.28535301  .00000822  00000+0  76652-4 0  9991",
    "TLE_LINE2": "2 55395  70.0003   2.8253 0003546 269.8500  90.2252 14.98331435154323",
    "COMMENT": "Grouped by shell and plane from TLE"
  },
  {
    "OBJECT_NAME": "STARLINK-5283",
    "OBJECT_ID": "23014F",
    "EPOCH": "2025-11-11T06:56:56.004576",
    "MEAN_MOTION": 14.98338688,
    "ECCENTRICITY": 0.0003833,
    "INCLINATION": 69.9997,
    "RA_OF_ASC_NODE": 2.8503,
    "ARG_OF_PERICENTER": 273.622,
    "MEAN_ANOMALY": 86.4501,
    "EPHEMERIS_TYPE": 0,
    "CLASSIFICATION_TYPE": "U",
    "NORAD_CAT_ID": 55396,
    "ELEMENT_SET_NO": 999,
    "REV_AT_EPOCH": 15432,
    "BSTAR": 0.0,
    "MEAN_MOTION_DOT": -1.13e-06,
    "MEAN_MOTION_DDOT": 0.0,
    "TLE_LINE1": "1 55396U 23014F   25315.28953709 -.00000113  00000+0 -16234-5 0  9994",
    "TLE_LINE2": "2 55396  69.9997   2.8503 0003833 273.6220  86.4501 14.98338688154323",
    "COMMENT": "Grouped by shell and plane from TLE"
  },
  {
    "OBJECT_NAME": "STARLINK-5275",
    "OBJECT_ID": "23014H",
    "EPOCH": "2025-11-11T07:20:57.505632",
    "MEAN_MOTION": 14.98333492,
    "ECCENTRICITY": 0.000304,
    "INCLINATION": 69.9998,
    "RA_OF_ASC_NODE": 2.9083,
    "ARG_OF_PERICENTER": 270.823,
    "MEAN_ANOMALY": 89.2581,
    "EPHEMERIS_TYPE": 0,
    "CLASSIFICATION_TYPE": "U",
    "NORAD_CAT_ID": 55398,
    "ELEMENT_SET_NO": 999,
    "REV_AT_EPOCH": 15432,
    "BSTAR": 6.6066e-05,
    "MEAN_MOTION_DOT": 6.95e-06,
    "MEAN_MOTION_DDOT": 0.0,
    "TLE_LINE1": "1 55398U 23014H   25315.30622113  .00000695  00000+0  66066-4 0  9991",
    "TLE_LINE2": "2 55398  69.9998   2.9083 0003040 270.8230  89.2581 14.98333492154327",
    "COMMENT": "Grouped by shell and plane from TLE"
  },
  {
    "OBJECT_NAME": "STARLINK-5276",
    "OBJECT_ID": "23014J",
    "EPOCH": "2025-11-11T07:08:56.322240",
    "MEAN_MOTION": 14.98334768,
    "ECCENTRICITY": 0.0003054,
    "INCLINATION": 70.0004,
    "RA_OF_ASC_NODE": 2.8776,
    "ARG_OF_PERICENTER": 272.0995,
    "MEAN_ANOMALY": 87.9815,
    "EPHEMERIS_TYPE": 0,
    "CLASSIFICATION_TYPE": "U",
    "NORAD_CAT_ID": 55399,
    "ELEMENT_SET_NO": 999,
    "REV_AT_EPOCH": 15432,
    "BSTAR": 4.0571000000000005e-06,
    "MEAN_MOTION_DOT": -4.5e-07,
    "MEAN_MOTION_DDOT": 0.0,
    "TLE_LINE1": "1 55399U 23014J   25315.29787410 -.00000045  00000+0  40571-5 0  9996",
    "TLE_LINE2": "2 55399  70.0004   2.8776 0003054 272.0995  87.9815 14.98334768154326",
    "COMMENT": "Grouped by shell and plane from TLE"
  },
  {
    "OBJECT_NAME": "STARLINK-5632",
    "OBJECT_ID": "23014K",
    "EPOCH": "2025-11-11T07:32:58.929216",
    "MEAN_MOTION": 14.98329554,
    "ECCENTRICITY": 0.000306,
    "INCLINATION": 69.9999,
    "RA_OF_ASC_NODE": 2.9327,
    "ARG_OF_PERICENTER": 271.1665,
    "MEAN_ANOMALY": 88.9143,
    "EPHEMERIS_TYPE": 0,
    "CLASSIFICATION_TYPE": "U",
    "NORAD_CAT_ID": 55400,
    "ELEMENT_SET_NO": 999,
    "REV_AT_EPOCH": 15432,
    "BSTAR": 0.0,
    "MEAN_MOTION_DOT": -2.038e-05,
    "MEAN_MOTION_DDOT": 0.0,
    "TLE_LINE1": "1 55400U 23014K   25315.31457094 -.00002038  00000+0 -16310-3 0  9991",
    "TLE_LINE2": "2 55400  69.9999   2.9327 0003060 271.1665  88.9143 14.98329554154325",
    "COMMENT": "Grouped by shell and plane from TLE"
  },
  {
    "OBJECT_NAME": "STARLINK-5076",
    "OBJECT_ID": "23014L",
    "EPOCH": "2025-11-11T07:14:56.034816",
    "MEAN_MOTION": 14.9833124,
    "ECCENTRICITY": 0.0003309,
    "INCLINATION": 70.0,
    "RA_OF_ASC_NODE": 2.8932,
    "ARG_OF_PERICENTER": 264.3992,
    "MEAN_ANOMALY": 95.679,
    "EPHEMERIS_TYPE": 0,
    "CLASSIFICATION_TYPE": "U",
    "NORAD_CAT_ID": 55401,
    "ELEMENT_SET_NO": 999,
    "REV_AT_EPOCH": 15432,
    "BSTAR": 0.00023217,
    "MEAN_MOTION_DOT": 2.678e-05,
    "MEAN_MOTION_DDOT": 0.0,
    "TLE_LINE1": "1 55401U 23014L   25315.30203744  .00002678  00000+0  23217-3 0  9994",
    "TLE_LINE2": "2 55401  70.0000   2.8932 0003309 264.3992  95.6790 14.98331240154324",
    "COMMENT": "Grouped by shell and plane from TLE"
  },
  {
    "OBJECT_NAME": "STARLINK-5071",
    "OBJECT_ID": "23014M",
    "EPOCH": "2025-11-11T06:08:52.137600",
    "MEAN_MOTION": 14.98334918,
    "ECCENTRICITY": 0.0002895,
    "INCLINATION": 70.0002,
    "RA_OF_ASC_NODE": 3.1363,
    "ARG_OF_PERICENTER": 266.3537,
    "MEAN_ANOMALY": 93.7291,
    "EPHEMERIS_TYPE": 0,
    "CLASSIFICATION_TYPE": "U",
    "NORAD_CAT_ID": 55402,
    "ELEMENT_SET_NO": 999,
    "REV_AT_EPOCH": 15431,
    "BSTAR": 7.2075e-05,
    "MEAN_MOTION_DOT": 7.67e-06,
    "MEAN_MOTION_DDOT": 0.0,
    "TLE_LINE1": "1 55402U 23014M   25315.25615900  .00000767  00000+0  72075-4 0  9994",
    "TLE_LINE2": "2 55402  70.0002   3.1363 0002895 266.3537  93.7291 14.98334918154314",
    "COMMENT": "Grouped by shell and plane from TLE"
  }
]